CUTE-1 (CO-55)          
1 27844U 03031E   26154.54951729  .00000336  00000+0  16425-3 0  9994
2 27844  98.6736 163.2800 0008690 219.4250 140.6297 14.24327019189732
CUBESAT XI-IV (CO-57)   
1 27848U 03031J   26156.00709544  .00000283  00000+0  14351-3 0  9994
2 27848  98.6767 164.4416 0008401 235.3371 124.7016 14.23614257189641
CUBESAT XI-V            
1 28895U 05043F   26155.96828464  .00001691  00000+0  27373-3 0  9991
2 28895  98.2974 311.3347 0012930 241.7427 118.2475 14.72598149 99957
CUTE-1.7+APD II (CO-65) 
1 32785U 08021C   26156.11712887  .00005944  00000+0  37629-3 0  9992
2 32785  97.8271 137.2864 0010589  74.0522 286.1872 15.09331596983371
CANX-2                  
1 32790U 08021H   26155.72703551  .00004286  00000+0  30188-3 0  9993
2 32790  97.8638 135.2647 0012384  87.4446 272.8198 15.05525197982931
SEEDS II (CO-66)        
1 32791U 08021J   26155.99110656  .00021364  00000+0  68611-3 0  9999
2 32791  97.7517 153.3111 0002846  38.3892 321.7551 15.32316594985429
SWISSCUBE               
1 35932U 09051B   26154.27980436  .00001220  00000+0  25059-3 0  9992
2 35932  98.4045  61.9256 0005398 254.9932 105.0671 14.62453382887126
BEESAT-1                
1 35933U 09051C   26155.71955788  .00001047  00000+0  22006-3 0  9991
2 35933  98.3973  63.0518 0003911 267.5336  92.5417 14.61699990887367
ITUPSAT1                
1 35935U 09051E   26155.69953963  .00000958  00000+0  20796-3 0  9997
2 35935  98.4056  62.2366 0006134 280.9538  79.0971 14.60421767886916
TISAT 1                 
1 36799U 10035E   26156.09494933  .00024075  00000+0  79927-3 0  9998
2 36799  98.0706 101.5757 0000324  13.4506 346.6742 15.31230464865853
AEROCUBE 4.5A           
1 38767U 12048K   26156.03479030  .00278208  34355-4  10440-2 0  9994
2 38767  64.6278  71.0977 0018890 214.1459 145.8485 15.87334447370729
STRAND-1                
1 39090U 13009E   26156.01141279  .00000319  00000+0  12165-3 0  9999
2 39090  98.3919 336.5458 0007387 267.1306  92.9036 14.37155961695311
BRITE-AUSTRIA           
1 39091U 13009F   26156.01903978  .00000202  00000+0  83363-4 0  9992
2 39091  98.3993 335.7563 0008967 277.6198  82.3970 14.36537181695308
NEE-01 PEGASO           
1 39151U 13018B   26154.46520451  .00003190  00000+0  30780-3 0  9990
2 39151  98.1207 298.1637 0012177 203.9081 156.1574 14.93586684708654
POPACS 2                
1 39269U 13055E   26156.02975657  .00011902  00000+0  20339-3 0  9996
2 39269  80.9906 158.1064 0417287 232.8647 123.3771 14.90917397661400
POPACS 3                
1 39270U 13055F   26155.95590848  .00012246  00000+0  28872-3 0  9996
2 39270  81.0025 242.4436 0553154 107.2016 259.0486 14.55874788636774
ZACUBE-1 (TSHEPISOSAT)  
1 39417U 13066B   26156.14240747  .00004989  00000+0  38812-3 0  9993
2 39417  97.8104 118.4142 0039897 290.2475  69.4462 15.01107591678924
WNISAT-1                
1 39423U 13066H   26156.20151064  .00000697  00000+0  13613-3 0  9994
2 39423  97.7190 306.2094 0161668 269.6563  88.6111 14.58043740664989
TRITON-1                
1 39427U 13066M   26156.13982992  .00002533  00000+0  30772-3 0  9998
2 39427  97.8256  66.2215 0088412 273.9018  85.2091 14.81661423672308
GOMX-1                  
1 39430U 13066Q   26156.20130332  .00002210  00000+0  33542-3 0  9993
2 39430  97.6487 357.4201 0130011 115.5827 245.8884 14.69412373668154
CUBEBUG-2 (LO-74)       
1 39440U 13066AA  26154.33051700  .00005093  00000+0  47123-3 0  9999
2 39440  97.8904 103.2522 0059453  73.9566 286.8190 14.93641817674922
NEE-02 KRYSAOR          
1 39441U 13066AB  26155.75699965  .00002457  00000+0  27225-3 0  9990
2 39441  97.8893  95.0615 0067693 109.9850 250.8672 14.86564783674353
FUNCUBE-1 (AO-73)       
1 39444U 13066AE  26155.59353272  .00008112  00000+0  50553-3 0  9997
2 39444  97.8278 126.7780 0034647 245.3456 114.4162 15.09331351677764
UWE-3                   
1 39446U 13066AG  26155.64928530  .00004713  00000+0  40572-3 0  9993
2 39446  97.8702 111.6406 0049326   3.6109 356.5458 14.96922367675703
BRITE-CA1 (TORONTO)     
1 40020U 14033L   26155.94362867  .00000836  00000+0  13337-3 0  9997
2 40020  97.9725 285.0983 0077622 316.8495  42.6646 14.72659852640414
DUCHIFAT-1              
1 40021U 14033M   26155.66830056  .00095076  00000+0  10761-2 0  9994
2 40021  98.0472 213.0954 0004852 139.0185 221.1436 15.62101054653793
NANOSATC-BR1            
1 40024U 14033Q   26156.05089345  .00019638  00000+0  65634-3 0  9998
2 40024  98.0722 187.3677 0003177 199.6617 160.4500 15.31055935652125
QB50P1                  
1 40025U 14033R   26156.02260228  .00009267  00000+0  45812-3 0  9990
2 40025  98.0971 166.3174 0007004 266.2794  93.7637 15.18067732651188
QB50P2                  
1 40032U 14033Y   26156.21211322  .00007245  00000+0  39174-3 0  9998
2 40032  98.0754 152.3486 0006748 204.2735 155.8179 15.14995805650858
PERSEUS-M2              
1 40037U 14033AD  26156.08648147  .00002787  00000+0  25703-3 0  9996
2 40037  97.9975 106.3814 0011595 349.3080  10.7892 14.95478297648970
